{"fetched_at":"2026-07-10T18:07:53.733Z","source":"https://celestrak.org/NORAD/elements/gp.php?GROUP=planet&FORMAT=JSON","constellation":"superdove","records":[{"OBJECT_NAME":"FLOCK 4H-33","OBJECT_ID":"2025-276BY","EPOCH":"2026-07-09T20:04:10.890624","CLASSIFICATION_TYPE":"U","MEAN_MOTION":15.21147676,"ECCENTRICITY":0.00022913,"INCLINATION":97.4216,"RA_OF_ASC_NODE":264.4028,"ARG_OF_PERICENTER":177.0663,"MEAN_ANOMALY":183.0587,"EPHEMERIS_TYPE":0,"NORAD_CAT_ID":66736,"ELEMENT_SET_NO":999,"REV_AT_EPOCH":3388,"BSTAR":0.00019359587,"MEAN_MOTION_DOT":0.00004242,"MEAN_MOTION_DDOT":0},{"OBJECT_NAME":"FLOCK 4H-34","OBJECT_ID":"2025-276BZ","EPOCH":"2026-07-09T03:56:08.513952","CLASSIFICATION_TYPE":"U","MEAN_MOTION":15.20785307,"ECCENTRICITY":0.00019865,"INCLINATION":97.4229,"RA_OF_ASC_NODE":263.6654,"ARG_OF_PERICENTER":188.174,"MEAN_ANOMALY":171.9464,"EPHEMERIS_TYPE":0,"NORAD_CAT_ID":66737,"ELEMENT_SET_NO":999,"REV_AT_EPOCH":3302,"BSTAR":0.00024103646,"MEAN_MOTION_DOT":0.00005243,"MEAN_MOTION_DDOT":0},{"OBJECT_NAME":"FLOCK 4H-35","OBJECT_ID":"2025-276CA","EPOCH":"2026-07-08T17:53:25.913184","CLASSIFICATION_TYPE":"U","MEAN_MOTION":15.20899914,"ECCENTRICITY":0.00020061,"INCLINATION":97.4188,"RA_OF_ASC_NODE":263.1934,"ARG_OF_PERICENTER":166.05,"MEAN_ANOMALY":194.0791,"EPHEMERIS_TYPE":0,"NORAD_CAT_ID":66738,"ELEMENT_SET_NO":999,"REV_AT_EPOCH":3300,"BSTAR":0.00022049128,"MEAN_MOTION_DOT":0.00004806,"MEAN_MOTION_DDOT":0},{"OBJECT_NAME":"FLOCK 4H-36","OBJECT_ID":"2025-276CB","EPOCH":"2026-07-10T03:57:21.800160","CLASSIFICATION_TYPE":"U","MEAN_MOTION":15.20678915,"ECCENTRICITY":0.00018655,"INCLINATION":97.424,"RA_OF_ASC_NODE":264.6448,"ARG_OF_PERICENTER":199.775,"MEAN_ANOMALY":160.3413,"EPHEMERIS_TYPE":0,"NORAD_CAT_ID":66739,"ELEMENT_SET_NO":999,"REV_AT_EPOCH":3392,"BSTAR":0.00020398461,"MEAN_MOTION_DOT":0.00004412,"MEAN_MOTION_DDOT":0}]}
