FLOCK 4H-33             
1 66736U 25276BY  26190.83623716  .00004242  00000+0  19360-3 0  9997
2 66736  97.4216 264.4028 0002291 177.0663 183.0587 15.21147676 33883
FLOCK 4H-34             
1 66737U 25276BZ  26190.16398743  .00005243  00000+0  24104-3 0  9997
2 66737  97.4229 263.6654 0001986 188.1740 171.9464 15.20785307 33027
FLOCK 4H-35             
1 66738U 25276CA  26189.74543881  .00004806  00000+0  22049-3 0  9995
2 66738  97.4188 263.1934 0002006 166.0500 194.0791 15.20899914 33008
FLOCK 4H-36             
1 66739U 25276CB  26191.16483565  .00004412  00000+0  20398-3 0  9995
2 66739  97.4240 264.6448 0001865 199.7750 160.3413 15.20678915 33920
